{"type": "FeatureCollection", "features": [ {"type": "Feature", "properties": {"norad_id": 31361, "name": "FENGYUN 1C DEB", "group": "fengyun-1c-debris", "lat": 32.987869291185945, "lon": -35.97822240746754, "alt_km": 798.8493730759046, "timestamp": "2025-12-20T14:38:02.251771+00:00", "meta": {"OBJECT_NAME": "FENGYUN 1C DEB", "OBJECT_ID": "1999-025BRR", "EPOCH": "2025-12-20T04:18:55.645344", "MEAN_MOTION": 14.17749243, "ECCENTRICITY": 0.00459984, "INCLINATION": 98.5514, "RA_OF_ASC_NODE": 329.2127, "ARG_OF_PERICENTER": 49.6824, "MEAN_ANOMALY": 310.8357, "EPHEMERIS_TYPE": 0, "CLASSIFICATION_TYPE": "U", "NORAD_CAT_ID": 31361, "ELEMENT_SET_NO": 999, "REV_AT_EPOCH": 96669, "BSTAR": 0.00010424169, "MEAN_MOTION_DOT": 1.73e-06, "MEAN_MOTION_DDOT": 0}, "tle": {"line1": "1 31361U 99025BRR 25354.17981071  .00000173  00000+0  10424-3 0  9996", "line2": "2 31361  98.5514 329.2127 0045998  49.6824 310.8357 14.17749243966697"}}, "geometry": {"type": "Point", "coordinates": [-35.97822240746754, 32.987869291185945]}}, {"type": "Feature", "properties": {"norad_id": 31362, "name": "FENGYUN 1C DEB", "group": "fengyun-1c-debris", "lat": 0.5125933526346202, "lon": -11.3266628192381, "alt_km": 833.0213608209842, "timestamp": "2025-12-20T14:38:02.251781+00:00", "meta": {"OBJECT_NAME": "FENGYUN 1C DEB", "OBJECT_ID": "1999-025BRS", "EPOCH": "2025-12-18T05:01:41.672640", "MEAN_MOTION": 14.17382659, "ECCENTRICITY": 0.00192472, "INCLINATION": 98.6526, "RA_OF_ASC_NODE": 346.4149, "ARG_OF_PERICENTER": 80.7275, "MEAN_ANOMALY": 279.6076, "EPHEMERIS_TYPE": 0, "CLASSIFICATION_TYPE": "U", "NORAD_CAT_ID": 31362, "ELEMENT_SET_NO": 999, "REV_AT_EPOCH": 96653, "BSTAR": 0.00014281029, "MEAN_MOTION_DOT": 2.47e-06, "MEAN_MOTION_DDOT": 0}, "tle": {"line1": "1 31362U 99025BRS 25352.20951010  .00000247  00000+0  14281-3 0  9996", "line2": "2 31362  98.6526 346.4149 0019247  80.7275 279.6076 14.17382659966538"}}, "geometry": {"type": "Point", "coordinates": [-11.3266628192381, 0.5125933526346202]}}, {"type": "Feature", "properties": {"norad_id": 31364, "name": "FENGYUN 1C DEB", "group": "fengyun-1c-debris", "lat": -53.58823353999466, "lon": 127.33114552463086, "alt_km": 917.4224727193387, "timestamp": "2025-12-20T14:38:02.251791+00:00", "meta": {"OBJECT_NAME": "FENGYUN 1C DEB", "OBJECT_ID": "1999-025BRU", "EPOCH": "2025-12-19T06:38:44.064096", "MEAN_MOTION": 14.14722125, "ECCENTRICITY": 0.0093165, "INCLINATION": 99.2627, "RA_OF_ASC_NODE": 113.1662, "ARG_OF_PERICENTER": 130.704, "MEAN_ANOMALY": 230.2272, "EPHEMERIS_TYPE": 0, "CLASSIFICATION_TYPE": "U", "NORAD_CAT_ID": 31364, "ELEMENT_SET_NO": 999, "REV_AT_EPOCH": 94969, "BSTAR": 0.0020276, "MEAN_MOTION_DOT": 4.026e-05, "MEAN_MOTION_DDOT": 0}, "tle": {"line1": "1 31364U 99025BRU 25353.27689889  .00004026  00000+0  20276-2 0  9997", "line2": "2 31364  99.2627 113.1662 0093165 130.7040 230.2272 14.14722125949697"}}, "geometry": {"type": "Point", "coordinates": [127.33114552463086, -53.58823353999466]}}, {"type": "Feature", "properties": {"norad_id": 31365, "name": "FENGYUN 1C DEB", "group": "fengyun-1c-debris", "lat": -57.19353053243097, "lon": 93.48513666536934, "alt_km": 766.9344590931423, "timestamp": "2025-12-20T14:38:02.251801+00:00", "meta": {"OBJECT_NAME": "FENGYUN 1C DEB", "OBJECT_ID": "1999-025BRV", "EPOCH": "2025-12-19T17:15:17.836416", "MEAN_MOTION": 14.41928769, "ECCENTRICITY": 0.00427408, "INCLINATION": 98.6753, "RA_OF_ASC_NODE": 78.8793, "ARG_OF_PERICENTER": 199.4849, "MEAN_ANOMALY": 160.4708, "EPHEMERIS_TYPE": 0, "CLASSIFICATION_TYPE": "U", "NORAD_CAT_ID": 31365, "ELEMENT_SET_NO": 999, "REV_AT_EPOCH": 96729, "BSTAR": 0.0013033856, "MEAN_MOTION_DOT": 4.272e-05, "MEAN_MOTION_DDOT": 0}, "tle": {"line1": "1 31365U 99025BRV 25353.71895644  .00004272  00000+0  13034-2 0  9992", "line2": "2 31365  98.6753  78.8793 0042740 199.4849 160.4708 14.41928769967291"}}, "geometry": {"type": "Point", "coordinates": [93.48513666536934, -57.19353053243097]}}, {"type": "Feature", "properties": {"norad_id": 31367, "name": "FENGYUN 1C DEB", "group": "fengyun-1c-debris", "lat": 2.2184643463047076, "lon": -111.20191771208306, "alt_km": 666.8893864605088, "timestamp": "2025-12-20T14:38:02.251811+00:00", "meta": {"OBJECT_NAME": "FENGYUN 1C DEB", "OBJECT_ID": "1999-025BRX", "EPOCH": "2025-12-19T04:28:59.882880", "MEAN_MOTION": 14.47516631, "ECCENTRICITY": 0.00990836, "INCLINATION": 98.7462, "RA_OF_ASC_NODE": 247.6691, "ARG_OF_PERICENTER": 357.1014, "MEAN_ANOMALY": 154.2981, "EPHEMERIS_TYPE": 0, "CLASSIFICATION_TYPE": "U", "NORAD_CAT_ID": 31367, "ELEMENT_SET_NO": 999, "REV_AT_EPOCH": 98559, "BSTAR": 0.00046885965, "MEAN_MOTION_DOT": 1.781e-05, "MEAN_MOTION_DDOT": 0}, "tle": {"line1": "1 31367U 99025BRX 25353.18680420  .00001781  00000+0  46886-3 0  9993", "line2": "2 31367  98.7462 247.6691 0099083 357.1014 154.2981 14.47516631985597"}}, "geometry": {"type": "Point", "coordinates": [-111.20191771208306, 2.2184643463047076]}}, {"type": "Feature", "properties": {"norad_id": 31369, "name": "FENGYUN 1C DEB", "group": "fengyun-1c-debris", "lat": -22.074557727049545, "lon": -20.79967503907369, "alt_km": 813.6897862368724, "timestamp": "2025-12-20T14:38:02.251820+00:00", "meta": {"OBJECT_NAME": "FENGYUN 1C DEB", "OBJECT_ID": "1999-025BRZ", "EPOCH": "2025-12-20T04:39:35.394624", "MEAN_MOTION": 14.19419635, "ECCENTRICITY": 0.00542184, "INCLINATION": 98.6195, "RA_OF_ASC_NODE": 335.2693, "ARG_OF_PERICENTER": 277.6645, "MEAN_ANOMALY": 97.1423, "EPHEMERIS_TYPE": 0, "CLASSIFICATION_TYPE": "U", "NORAD_CAT_ID": 31369, "ELEMENT_SET_NO": 999, "REV_AT_EPOCH": 64433, "BSTAR": 0.00020619755, "MEAN_MOTION_DOT": 3.97e-06, "MEAN_MOTION_DDOT": 0}, "tle": {"line1": "1 31369U 99025BRZ 25354.19415966  .00000397  00000+0  20620-3 0  9998", "line2": "2 31369  98.6195 335.2693 0054218 277.6645  97.1423 14.19419635644339"}}, "geometry": {"type": "Point", "coordinates": [-20.79967503907369, -22.074557727049545]}}, {"type": "Feature", "properties": {"norad_id": 31370, "name": "FENGYUN 1C DEB", "group": "fengyun-1c-debris", "lat": -16.60930852736496, "lon": 171.76956383163034, "alt_km": 860.2135907381507, "timestamp": "2025-12-20T14:38:02.251830+00:00", "meta": {"OBJECT_NAME": "FENGYUN 1C DEB", "OBJECT_ID": "1999-025BSA", "EPOCH": "2025-12-18T10:35:51.641952", "MEAN_MOTION": 14.09714607, "ECCENTRICITY": 0.00331839, "INCLINATION": 98.7533, "RA_OF_ASC_NODE": 352.2955, "ARG_OF_PERICENTER": 281.205, "MEAN_ANOMALY": 78.5392, "EPHEMERIS_TYPE": 0, "CLASSIFICATION_TYPE": "U", "NORAD_CAT_ID": 31370, "ELEMENT_SET_NO": 999, "REV_AT_EPOCH": 96374, "BSTAR": 0.00035450044, "MEAN_MOTION_DOT": 5.82e-06, "MEAN_MOTION_DDOT": 0}, "tle": {"line1": "1 31370U 99025BSA 25352.44156993  .00000582  00000+0  35450-3 0  9991", "line2": "2 31370  98.7533 352.2955 0033183 281.2050  78.5392 14.09714607963740"}}, "geometry": {"type": "Point", "coordinates": [171.76956383163034, -16.60930852736496]}}, {"type": "Feature", "properties": {"norad_id": 31371, "name": "FENGYUN 1C DEB", "group": "fengyun-1c-debris", "lat": -46.036120660992054, "lon": 36.534974182001235, "alt_km": 883.2270064143568, "timestamp": "2025-12-20T14:38:02.251840+00:00", "meta": {"OBJECT_NAME": "FENGYUN 1C DEB", "OBJECT_ID": "1999-025BSB", "EPOCH": "2025-12-18T21:49:26.366880", "MEAN_MOTION": 14.04521226, "ECCENTRICITY": 0.00780785, "INCLINATION": 98.7654, "RA_OF_ASC_NODE": 25.6882, "ARG_OF_PERICENTER": 229.3308, "MEAN_ANOMALY": 130.1056, "EPHEMERIS_TYPE": 0, "CLASSIFICATION_TYPE": "U", "NORAD_CAT_ID": 31371, "ELEMENT_SET_NO": 999, "REV_AT_EPOCH": 95833, "BSTAR": 0.00050459747, "MEAN_MOTION_DOT": 7.85e-06, "MEAN_MOTION_DDOT": 0}, "tle": {"line1": "1 31371U 99025BSB 25352.90933295  .00000785  00000+0  50460-3 0  9994", "line2": "2 31371  98.7654  25.6882 0078078 229.3308 130.1056 14.04521226958335"}}, "geometry": {"type": "Point", "coordinates": [36.534974182001235, -46.036120660992054]}}, {"type": "Feature", "properties": {"norad_id": 31372, "name": "FENGYUN 1C DEB", "group": "fengyun-1c-debris", "lat": -42.21478037105428, "lon": -5.177506443996953, "alt_km": 812.02228746334, "timestamp": "2025-12-20T14:38:02.251849+00:00", "meta": {"OBJECT_NAME": "FENGYUN 1C DEB", "OBJECT_ID": "1999-025BSC", "EPOCH": "2025-12-19T22:00:06.230592", "MEAN_MOTION": 14.26585393, "ECCENTRICITY": 0.0033993, "INCLINATION": 99.3739, "RA_OF_ASC_NODE": 345.4622, "ARG_OF_PERICENTER": 54.791, "MEAN_ANOMALY": 305.6442, "EPHEMERIS_TYPE": 0, "CLASSIFICATION_TYPE": "U", "NORAD_CAT_ID": 31372, "ELEMENT_SET_NO": 999, "REV_AT_EPOCH": 95953, "BSTAR": 0.001089, "MEAN_MOTION_DOT": 2.595e-05, "MEAN_MOTION_DDOT": 0}, "tle": {"line1": "1 31372U 99025BSC 25353.91673878  .00002595  00000+0  10890-2 0  9998", "line2": "2 31372  99.3739 345.4622 0033993  54.7910 305.6442 14.26585393959538"}}, "geometry": {"type": "Point", "coordinates": [-5.177506443996953, -42.21478037105428]}}, {"type": "Feature", "properties": {"norad_id": 31376, "name": "FENGYUN 1C DEB", "group": "fengyun-1c-debris", "lat": 43.92500844035461, "lon": 99.97282380578122, "alt_km": 694.4141087973039, "timestamp": "2025-12-20T14:38:02.251859+00:00", "meta": {"OBJECT_NAME": "FENGYUN 1C DEB", "OBJECT_ID": "1999-025BSG", "EPOCH": "2025-12-20T00:52:13.924128", "MEAN_MOTION": 14.618453, "ECCENTRICITY": 0.00486256, "INCLINATION": 98.8346, "RA_OF_ASC_NODE": 270.745, "ARG_OF_PERICENTER": 245.9093, "MEAN_ANOMALY": 113.7015, "EPHEMERIS_TYPE": 0, "CLASSIFICATION_TYPE": "U", "NORAD_CAT_ID": 31376, "ELEMENT_SET_NO": 999, "REV_AT_EPOCH": 98249, "BSTAR": 0.0012443898, "MEAN_MOTION_DOT": 6.272e-05, "MEAN_MOTION_DDOT": 0}, "tle": {"line1": "1 31376U 99025BSG 25354.03627227  .00006272  00000+0  12444-2 0  9996", "line2": "2 31376  98.8346 270.7450 0048625 245.9093 113.7015 14.61845300982494"}}, "geometry": {"type": "Point", "coordinates": [99.97282380578122, 43.92500844035461]}}]}